IRIDIUM 26              
1 24903U 97043A   25219.56989472  .00000282  00000+0  88360-4 0  9990
2 24903  86.3920  89.0323 0001947  85.7714 274.3706 14.37176645464126
IRIDIUM 22              
1 24907U 97043E   25219.61192858  .00000281  00000+0  90037-4 0  9997
2 24907  86.3928  92.6005 0002081  88.9599 271.1836 14.35985712464154
DUMMY MASS 1            
1 24925U 97048A   25219.42599716  .00000333  00000+0  34028-4 0  9991
2 24925  86.3345 111.6435 0005625 345.9723  14.1345 14.87021489512746
DUMMY MASS 2            
1 24926U 97048B   25219.46398939  .00000335  00000+0  34472-4 0  9995
2 24926  86.3348 113.2432 0006861 355.8206   4.2960 14.86773521512523
IRIDIUM 29              
1 24944U 97051A   25219.47719434  .00000335  00000+0  10734-3 0  9991
2 24944  86.3973 122.3938 0002380  87.4001 272.7468 14.36502722460639
IRIDIUM 36              
1 24967U 97056C   25219.51284898  .00000286  00000+0  88691-4 0  9990
2 24967  86.4020 151.4564 0002075  91.1625 268.9810 14.37642798459591
